G90 ; absolute positions
G21 ; mm system units
G1 X0.0 Y-300.0 F5000
G3 X34.213 Y-298.043 I-0.0 J300.0 F5000
G1 Z243.964 F5000
M991
G1 A0.0 F1000
G1 X17.594 Y-153.266 Z243.964 F2000
G1 A0.0 F1000
G1 X17.594 Y-173.266 Z263.964 F2000
G1 A0.0 F1000
G1 X17.594 Y-173.266 Z283.964 F2000
G1 A0.0 F1000
G1 X17.594 Y-193.266 Z303.964 F2000
G1 A0.0 F1000
G1 X17.594 Y-213.266 Z323.964 F2000
G1 A0.0 F1000
G1 X17.594 Y-213.266 Z343.964 F2000
G1 A0.0 F1000
G1 X17.594 Y-233.266 Z363.964 F2000
G1 A0.0 F1000
G1 X17.594 Y-233.266 Z383.964 F2000
G1 A44.838 F1000
G1 X17.594 Y-213.266 Z403.964 F2000
G1 A0.0 F1000
G1 X17.594 Y-213.266 Z423.964 F2000
G1 A44.806 F1000
G1 X17.594 Y-193.266 Z443.964 F2000
G1 A0.0 F1000
G1 X17.594 Y-193.266 Z463.964 F2000
G1 A44.765 F1000
G1 X17.594 Y-173.266 Z483.964 F2000
G1 A44.708 F1000
G1 X17.594 Y-153.266 Z503.964 F2000
M992
G1 X34.213 Y-298.043 F5000
G3 X71.467 Y-291.363 I-34.213 J298.043 F5000
G1 Z243.964 F5000
M991
G1 A0.0 F1000
G1 X37.594 Y-153.266 Z243.964 F2000
G1 A0.0 F1000
G1 X37.594 Y-153.266 Z263.964 F2000
G1 A0.0 F1000
G1 X37.594 Y-173.266 Z283.964 F2000
G1 A0.0 F1000
G1 X37.594 Y-193.266 Z303.964 F2000
G1 A0.0 F1000
G1 X37.594 Y-193.266 Z323.964 F2000
G1 A0.0 F1000
G1 X57.594 Y-213.266 Z343.964 F2000
G1 A0.0 F1000
G1 X57.594 Y-213.266 Z363.964 F2000
G1 A0.0 F1000
G1 X57.594 Y-213.266 Z383.964 F2000
G1 A0.0 F1000
G1 X57.594 Y-213.266 Z403.964 F2000
G1 A0.0 F1000
G1 X57.594 Y-213.266 Z423.964 F2000
G1 A45.065 F1000
G1 X37.594 Y-193.266 Z443.964 F2000
G1 A0.0 F1000
G1 X37.594 Y-193.266 Z463.964 F2000
G1 A43.955 F1000
G1 X37.594 Y-173.266 Z483.964 F2000
G1 A43.712 F1000
G1 X37.594 Y-153.266 Z503.964 F2000
G1 A43.373 F1000
G1 X37.594 Y-133.266 Z523.964 F2000
M992
G1 X81.45 Y-288.732 F5000
G3 X119.013 Y-275.383 I-81.45 J288.732 F5000
G1 Z223.964 F5000
M991
G1 A0.0 F1000
G1 X57.594 Y-133.266 Z223.964 F2000
G1 A0.0 F1000
G1 X57.594 Y-133.266 Z243.964 F2000
G1 A0.0 F1000
G1 X57.594 Y-153.266 Z263.964 F2000
G1 A0.0 F1000
G1 X57.594 Y-153.266 Z283.964 F2000
G1 A0.0 F1000
G1 X77.594 Y-173.266 Z303.964 F2000
G1 A0.0 F1000
G1 X77.594 Y-193.266 Z323.964 F2000
G1 A0.0 F1000
G1 X77.594 Y-193.266 Z343.964 F2000
G1 A0.0 F1000
G1 X77.594 Y-213.266 Z363.964 F2000
G1 A0.0 F1000
G1 X77.594 Y-213.266 Z383.964 F2000
G1 A0.0 F1000
G1 X77.594 Y-213.266 Z403.964 F2000
G1 A41.643 F1000
G1 X77.594 Y-193.266 Z423.964 F2000
G1 A0.0 F1000
G1 X77.594 Y-193.266 Z443.964 F2000
G1 A41.01 F1000
G1 X77.594 Y-173.266 Z463.964 F2000
G1 A49.72 F1000
G1 X57.594 Y-153.266 Z483.964 F2000
G1 A0.0 F1000
G1 X57.594 Y-153.266 Z503.964 F2000
G1 A65.219 F1000
G1 X37.594 Y-113.266 Z523.964 F2000
M992
G1 X94.503 Y-284.727 F5000
G3 X150.951 Y-259.256 I-94.503 J284.727 F5000
G1 Z243.964 F5000
M991
G1 A0.0 F1000
G1 X77.594 Y-133.266 Z243.964 F2000
G1 A0.0 F1000
G1 X77.594 Y-153.266 Z263.964 F2000
G1 A0.0 F1000
G1 X77.594 Y-153.266 Z283.964 F2000
G1 A0.0 F1000
G1 X97.594 Y-173.266 Z303.964 F2000
G1 A0.0 F1000
G1 X97.594 Y-173.266 Z323.964 F2000
G1 A0.0 F1000
G1 X97.594 Y-173.266 Z343.964 F2000
G1 A0.0 F1000
G1 X117.594 Y-193.266 Z363.964 F2000
G1 A0.0 F1000
G1 X117.594 Y-193.266 Z383.964 F2000
G1 A0.0 F1000
G1 X117.594 Y-193.266 Z403.964 F2000
G1 A0.0 F1000
G1 X117.594 Y-193.266 Z423.964 F2000
G1 A52.498 F1000
G1 X97.594 Y-173.266 Z443.964 F2000
G1 A0.0 F1000
G1 X97.594 Y-173.266 Z463.964 F2000
G1 A51.849 F1000
G1 X77.594 Y-153.266 Z483.964 F2000
G1 A39.114 F1000
G1 X77.594 Y-133.266 Z503.964 F2000
G1 A52.134 F1000
G1 X57.594 Y-113.266 Z523.964 F2000
M992
G1 X135.976 Y-267.415 F5000
G3 X195.825 Y-227.272 I-135.976 J267.415 F5000
G1 Z223.964 F5000
M991
G1 A0.0 F1000
G1 X97.594 Y-113.266 Z223.964 F2000
G1 A0.0 F1000
G1 X97.594 Y-113.266 Z243.964 F2000
G1 A0.0 F1000
G1 X97.594 Y-133.266 Z263.964 F2000
G1 A0.0 F1000
G1 X97.594 Y-133.266 Z283.964 F2000
G1 A0.0 F1000
G1 X117.594 Y-153.266 Z303.964 F2000
G1 A0.0 F1000
G1 X117.594 Y-153.266 Z323.964 F2000
G1 A0.0 F1000
G1 X137.594 Y-173.266 Z343.964 F2000
G1 A0.0 F1000
G1 X137.594 Y-173.266 Z363.964 F2000
G1 A0.0 F1000
G1 X137.594 Y-173.266 Z383.964 F2000
G1 A0.0 F1000
G1 X137.594 Y-173.266 Z403.964 F2000
G1 A0.0 F1000
G1 X137.594 Y-173.266 Z423.964 F2000
G1 A0.0 F1000
G1 X137.594 Y-173.266 Z443.964 F2000
G1 A0.0 F1000
G1 X137.594 Y-173.266 Z463.964 F2000
G1 A69.498 F1000
G1 X97.594 Y-133.266 Z483.964 F2000
G1 A34.784 F1000
G1 X97.594 Y-113.266 Z503.964 F2000
G1 A70.088 F1000
G1 X57.594 Y-73.266 Z523.964 F2000
M992
G1 X185.402 Y-235.852 F5000
G3 X235.048 Y-186.421 I-185.402 J235.852 F5000
G1 Z223.964 F5000
M991
G1 A0.0 F1000
G1 X117.594 Y-93.266 Z223.964 F2000
G1 A0.0 F1000
G1 X117.594 Y-93.266 Z243.964 F2000
G1 A0.0 F1000
G1 X137.594 Y-113.266 Z263.964 F2000
G1 A0.0 F1000
G1 X137.594 Y-113.266 Z283.964 F2000
G1 A0.0 F1000
G1 X157.594 Y-133.266 Z303.964 F2000
G1 A0.0 F1000
G1 X157.594 Y-133.266 Z323.964 F2000
G1 A0.0 F1000
G1 X157.594 Y-133.266 Z343.964 F2000
G1 A0.0 F1000
G1 X157.594 Y-133.266 Z363.964 F2000
G1 A0.0 F1000
G1 X177.594 Y-153.266 Z383.964 F2000
G1 A0.0 F1000
G1 X177.594 Y-153.266 Z403.964 F2000
G1 A0.0 F1000
G1 X177.594 Y-153.266 Z423.964 F2000
G1 A0.0 F1000
G1 X177.594 Y-153.266 Z443.964 F2000
G1 A54.518 F1000
G1 X157.594 Y-133.266 Z463.964 F2000
G1 A54.455 F1000
G1 X137.594 Y-113.266 Z483.964 F2000
G1 A54.359 F1000
G1 X117.594 Y-93.266 Z503.964 F2000
G1 A69.488 F1000
G1 X77.594 Y-53.266 Z523.964 F2000
M992
G1 X247.332 Y-169.785 F5000
G3 X264.8 Y-141.0 I-247.332 J169.785 F5000
G1 Z243.964 F5000
M991
G1 A0.0 F1000
G1 X137.594 Y-73.266 Z243.964 F2000
G1 A0.0 F1000
G1 X137.594 Y-73.266 Z263.964 F2000
G1 A0.0 F1000
G1 X157.594 Y-93.266 Z283.964 F2000
G1 A0.0 F1000
G1 X157.594 Y-93.266 Z303.964 F2000
G1 A0.0 F1000
G1 X177.594 Y-113.266 Z323.964 F2000
G1 A0.0 F1000
G1 X177.594 Y-113.266 Z343.964 F2000
G1 A0.0 F1000
G1 X177.594 Y-113.266 Z363.964 F2000
G1 A0.0 F1000
G1 X197.594 Y-113.266 Z383.964 F2000
G1 A0.0 F1000
G1 X197.594 Y-113.266 Z403.964 F2000
G1 A0.0 F1000
G1 X197.594 Y-113.266 Z423.964 F2000
G1 A0.0 F1000
G1 X197.594 Y-113.266 Z443.964 F2000
G1 A37.84 F1000
G1 X177.594 Y-113.266 Z463.964 F2000
G1 A52.867 F1000
G1 X157.594 Y-93.266 Z483.964 F2000
G1 A52.27 F1000
G1 X137.594 Y-73.266 Z503.964 F2000
G1 A73.523 F1000
G1 X77.594 Y-33.266 Z523.964 F2000
M992
G1 X275.729 Y-118.209 F5000
G3 X279.768 Y-108.305 I-275.729 J118.209 F5000
G1 Z223.964 F5000
M991
G1 A0.0 F1000
G1 X137.594 Y-53.266 Z223.964 F2000
G1 A0.0 F1000
G1 X137.594 Y-53.266 Z243.964 F2000
G1 A0.0 F1000
G1 X157.594 Y-53.266 Z263.964 F2000
G1 A0.0 F1000
G1 X157.594 Y-53.266 Z283.964 F2000
G1 A0.0 F1000
G1 X177.594 Y-73.266 Z303.964 F2000
G1 A0.0 F1000
G1 X177.594 Y-73.266 Z323.964 F2000
G1 A0.0 F1000
G1 X197.594 Y-73.266 Z343.964 F2000
G1 A0.0 F1000
G1 X197.594 Y-73.266 Z363.964 F2000
G1 A0.0 F1000
G1 X197.594 Y-73.266 Z383.964 F2000
G1 A0.0 F1000
G1 X197.594 Y-73.266 Z403.964 F2000
G1 A0.0 F1000
G1 X197.594 Y-73.266 Z423.964 F2000
G1 A0.0 F1000
G1 X197.594 Y-73.266 Z443.964 F2000
G1 A0.0 F1000
G1 X197.594 Y-73.266 Z463.964 F2000
G1 A41.529 F1000
G1 X177.594 Y-73.266 Z483.964 F2000
G1 A65.572 F1000
G1 X137.594 Y-53.266 Z503.964 F2000
G1 A70.166 F1000
G1 X77.594 Y-13.266 Z523.964 F2000
M992
G1 X295.71 Y-50.555 F5000
G3 X291.599 Y-70.499 I-295.71 J50.555 F5000
G1 Z223.964 F5000
M991
G1 A0.0 F1000
G1 X137.594 Y-33.266 Z223.964 F2000
G1 A0.0 F1000
G1 X137.594 Y-33.266 Z243.964 F2000
G1 A0.0 F1000
G1 X157.594 Y-33.266 Z263.964 F2000
G1 A0.0 F1000
G1 X177.594 Y-33.266 Z283.964 F2000
G1 A0.0 F1000
G1 X177.594 Y-33.266 Z303.964 F2000
G1 A0.0 F1000
G1 X197.594 Y-53.266 Z323.964 F2000
G1 A0.0 F1000
G1 X197.594 Y-53.266 Z343.964 F2000
G1 A0.0 F1000
G1 X217.594 Y-53.266 Z363.964 F2000
G1 A0.0 F1000
G1 X217.594 Y-53.266 Z383.964 F2000
G1 A0.0 F1000
G1 X217.594 Y-53.266 Z403.964 F2000
G1 A0.0 F1000
G1 X217.594 Y-53.266 Z423.964 F2000
G1 A0.0 F1000
G1 X217.594 Y-53.266 Z443.964 F2000
G1 A43.379 F1000
G1 X197.594 Y-53.266 Z463.964 F2000
G1 A45.05 F1000
G1 X177.594 Y-33.266 Z483.964 F2000
G1 A44.029 F1000
G1 X157.594 Y-33.266 Z503.964 F2000
M992
G1 X293.532 Y-61.96 F5000
G3 X298.943 Y-25.164 I-293.532 J61.96 F5000
G1 Z263.964 F5000
M991
G1 A0.0 F1000
G1 X157.594 Y-13.266 Z263.964 F2000
G1 A0.0 F1000
G1 X177.594 Y-13.266 Z283.964 F2000
G1 A0.0 F1000
G1 X197.594 Y-13.266 Z303.964 F2000
G1 A0.0 F1000
G1 X197.594 Y-13.266 Z323.964 F2000
G1 A0.0 F1000
G1 X217.594 Y-13.266 Z343.964 F2000
G1 A0.0 F1000
G1 X217.594 Y-13.266 Z363.964 F2000
G1 A0.0 F1000
G1 X217.594 Y-13.266 Z383.964 F2000
G1 A0.0 F1000
G1 X217.594 Y-13.266 Z403.964 F2000
G1 A0.0 F1000
G1 X217.594 Y-13.266 Z423.964 F2000
G1 A0.0 F1000
G1 X217.594 Y-13.266 Z443.964 F2000
G1 A44.894 F1000
G1 X197.594 Y-13.266 Z463.964 F2000
G1 A0.0 F1000
G1 X197.594 Y-13.266 Z483.964 F2000
G1 A63.179 F1000
G1 X157.594 Y-13.266 Z503.964 F2000
M992
G1 X298.943 Y-25.164 F5000
G3 X34.213 Y-298.043 I-298.943 J25.164 F5000
G1 Z263.964 F5000
M991
G1 A0.0 F1000
G1 X17.594 Y-153.266 Z263.964 F2000
G1 A0.0 F1000
G1 X17.594 Y-153.266 Z283.964 F2000
G1 A0.0 F1000
G1 X17.594 Y-173.266 Z303.964 F2000
G1 A0.0 F1000
G1 X17.594 Y-193.266 Z323.964 F2000
G1 A0.0 F1000
G1 X17.594 Y-193.266 Z343.964 F2000
G1 A0.0 F1000
G1 X17.594 Y-213.266 Z363.964 F2000
G1 A0.0 F1000
G1 X17.594 Y-213.266 Z383.964 F2000
G1 A44.806 F1000
G1 X17.594 Y-193.266 Z403.964 F2000
G1 A0.0 F1000
G1 X17.594 Y-193.266 Z423.964 F2000
G1 A44.765 F1000
G1 X17.594 Y-173.266 Z443.964 F2000
G1 A0.0 F1000
G1 X17.594 Y-173.266 Z463.964 F2000
G1 A44.708 F1000
G1 X17.594 Y-153.266 Z483.964 F2000
M992
G1 X34.213 Y-298.043 F5000
G3 X71.467 Y-291.363 I-34.213 J298.043 F5000
G1 Z283.964 F5000
M991
G1 A0.0 F1000
G1 X37.594 Y-153.266 Z283.964 F2000
G1 A0.0 F1000
G1 X37.594 Y-173.266 Z303.964 F2000
G1 A0.0 F1000
G1 X37.594 Y-173.266 Z323.964 F2000
G1 A0.0 F1000
G1 X37.594 Y-193.266 Z343.964 F2000
G1 A0.0 F1000
G1 X37.594 Y-193.266 Z363.964 F2000
G1 A0.0 F1000
G1 X37.594 Y-193.266 Z383.964 F2000
G1 A0.0 F1000
G1 X37.594 Y-193.266 Z403.964 F2000
G1 A0.0 F1000
G1 X37.594 Y-193.266 Z423.964 F2000
G1 A43.955 F1000
G1 X37.594 Y-173.266 Z443.964 F2000
G1 A0.0 F1000
G1 X37.594 Y-173.266 Z463.964 F2000
G1 A43.712 F1000
G1 X37.594 Y-153.266 Z483.964 F2000
G1 A43.373 F1000
G1 X37.594 Y-133.266 Z503.964 F2000
G1 A45.432 F1000
G1 X17.594 Y-113.266 Z523.964 F2000
M992
G1 X46.047 Y-296.445 F5000
G3 X119.013 Y-275.383 I-46.047 J296.445 F5000
G1 Z263.964 F5000
M991
G1 A0.0 F1000
G1 X57.594 Y-133.266 Z263.964 F2000
G1 A0.0 F1000
G1 X57.594 Y-133.266 Z283.964 F2000
G1 A0.0 F1000
G1 X57.594 Y-153.266 Z303.964 F2000
G1 A0.0 F1000
G1 X77.594 Y-173.266 Z323.964 F2000
G1 A0.0 F1000
G1 X77.594 Y-173.266 Z343.964 F2000
G1 A0.0 F1000
G1 X77.594 Y-193.266 Z363.964 F2000
G1 A0.0 F1000
G1 X77.594 Y-193.266 Z383.964 F2000
G1 A0.0 F1000
G1 X77.594 Y-193.266 Z403.964 F2000
G1 A41.01 F1000
G1 X77.594 Y-173.266 Z423.964 F2000
G1 A0.0 F1000
G1 X77.594 Y-173.266 Z443.964 F2000
G1 A49.72 F1000
G1 X57.594 Y-153.266 Z463.964 F2000
G1 A41.446 F1000
G1 X57.594 Y-133.266 Z483.964 F2000
G1 A0.0 F1000
G1 X57.594 Y-133.266 Z503.964 F2000
G1 A65.707 F1000
G1 X37.594 Y-93.266 Z523.964 F2000
M992
G1 X112.156 Y-278.246 F5000
G3 X150.951 Y-259.256 I-112.156 J278.246 F5000
G1 Z263.964 F5000
M991
G1 A0.0 F1000
G1 X77.594 Y-133.266 Z263.964 F2000
G1 A0.0 F1000
G1 X77.594 Y-133.266 Z283.964 F2000
G1 A0.0 F1000
G1 X77.594 Y-153.266 Z303.964 F2000
G1 A0.0 F1000
G1 X77.594 Y-153.266 Z323.964 F2000
G1 A0.0 F1000
G1 X77.594 Y-153.266 Z343.964 F2000
G1 A0.0 F1000
G1 X97.594 Y-173.266 Z363.964 F2000
G1 A0.0 F1000
G1 X97.594 Y-173.266 Z383.964 F2000
G1 A0.0 F1000
G1 X97.594 Y-173.266 Z403.964 F2000
G1 A0.0 F1000
G1 X97.594 Y-173.266 Z423.964 F2000
G1 A51.849 F1000
G1 X77.594 Y-153.266 Z443.964 F2000
G1 A0.0 F1000
G1 X77.594 Y-153.266 Z463.964 F2000
G1 A39.114 F1000
G1 X77.594 Y-133.266 Z483.964 F2000
G1 A52.134 F1000
G1 X57.594 Y-113.266 Z503.964 F2000
G1 A39.072 F1000
G1 X57.594 Y-93.266 Z523.964 F2000
M992
G1 X157.625 Y-255.254 F5000
G3 X195.825 Y-227.272 I-157.625 J255.254 F5000
G1 Z263.964 F5000
M991
G1 A0.0 F1000
G1 X97.594 Y-113.266 Z263.964 F2000
G1 A0.0 F1000
G1 X97.594 Y-113.266 Z283.964 F2000
G1 A0.0 F1000
G1 X97.594 Y-133.266 Z303.964 F2000
G1 A0.0 F1000
G1 X97.594 Y-133.266 Z323.964 F2000
G1 A0.0 F1000
G1 X117.594 Y-153.266 Z343.964 F2000
G1 A0.0 F1000
G1 X117.594 Y-153.266 Z363.964 F2000
G1 A0.0 F1000
G1 X117.594 Y-153.266 Z383.964 F2000
G1 A0.0 F1000
G1 X117.594 Y-153.266 Z403.964 F2000
G1 A0.0 F1000
G1 X117.594 Y-153.266 Z423.964 F2000
G1 A0.0 F1000
G1 X117.594 Y-153.266 Z443.964 F2000
G1 A0.0 F1000
G1 X117.594 Y-153.266 Z463.964 F2000
G1 A63.676 F1000
G1 X97.594 Y-113.266 Z483.964 F2000
G1 A54.513 F1000
G1 X77.594 Y-93.266 Z503.964 F2000
G1 A69.862 F1000
G1 X37.594 Y-53.266 Z523.964 F2000
M992
G1 X172.988 Y-245.103 F5000
G3 X235.048 Y-186.421 I-172.988 J245.103 F5000
G1 Z263.964 F5000
M991
G1 A0.0 F1000
G1 X117.594 Y-93.266 Z263.964 F2000
G1 A0.0 F1000
G1 X117.594 Y-93.266 Z283.964 F2000
G1 A0.0 F1000
G1 X137.594 Y-113.266 Z303.964 F2000
G1 A0.0 F1000
G1 X137.594 Y-113.266 Z323.964 F2000
G1 A0.0 F1000
G1 X137.594 Y-113.266 Z343.964 F2000
G1 A0.0 F1000
G1 X137.594 Y-113.266 Z363.964 F2000
G1 A0.0 F1000
G1 X157.594 Y-133.266 Z383.964 F2000
G1 A0.0 F1000
G1 X157.594 Y-133.266 Z403.964 F2000
G1 A0.0 F1000
G1 X157.594 Y-133.266 Z423.964 F2000
G1 A0.0 F1000
G1 X157.594 Y-133.266 Z443.964 F2000
G1 A54.455 F1000
G1 X137.594 Y-113.266 Z463.964 F2000
G1 A54.359 F1000
G1 X117.594 Y-93.266 Z483.964 F2000
G1 A54.205 F1000
G1 X97.594 Y-73.266 Z503.964 F2000
G1 A68.97 F1000
G1 X57.594 Y-33.266 Z523.964 F2000
M992
G1 X259.78 Y-150.047 F5000
G3 X264.8 Y-141.0 I-259.78 J150.047 F5000
G1 Z283.964 F5000
M991
G1 A0.0 F1000
G1 X137.594 Y-73.266 Z283.964 F2000
G1 A0.0 F1000
G1 X137.594 Y-73.266 Z303.964 F2000
G1 A0.0 F1000
G1 X157.594 Y-93.266 Z323.964 F2000
G1 A0.0 F1000
G1 X157.594 Y-93.266 Z343.964 F2000
G1 A0.0 F1000
G1 X157.594 Y-93.266 Z363.964 F2000
G1 A0.0 F1000
G1 X177.594 Y-113.266 Z383.964 F2000
G1 A0.0 F1000
G1 X177.594 Y-113.266 Z403.964 F2000
G1 A0.0 F1000
G1 X177.594 Y-113.266 Z423.964 F2000
G1 A0.0 F1000
G1 X177.594 Y-113.266 Z443.964 F2000
G1 A52.867 F1000
G1 X157.594 Y-93.266 Z463.964 F2000
G1 A52.27 F1000
G1 X137.594 Y-73.266 Z483.964 F2000
G1 A38.619 F1000
G1 X117.594 Y-73.266 Z503.964 F2000
G1 A77.669 F1000
G1 X37.594 Y-13.266 Z523.964 F2000
M992
G1 X282.904 Y-99.828 F5000
G3 X279.768 Y-108.305 I-282.904 J99.828 F5000
G1 Z263.964 F5000
M991
G1 A0.0 F1000
G1 X137.594 Y-53.266 Z263.964 F2000
G1 A0.0 F1000
G1 X137.594 Y-53.266 Z283.964 F2000
G1 A0.0 F1000
G1 X157.594 Y-53.266 Z303.964 F2000
G1 A0.0 F1000
G1 X157.594 Y-53.266 Z323.964 F2000
G1 A0.0 F1000
G1 X177.594 Y-73.266 Z343.964 F2000
G1 A0.0 F1000
G1 X177.594 Y-73.266 Z363.964 F2000
G1 A0.0 F1000
G1 X177.594 Y-73.266 Z383.964 F2000
G1 A0.0 F1000
G1 X177.594 Y-73.266 Z403.964 F2000
G1 A0.0 F1000
G1 X177.594 Y-73.266 Z423.964 F2000
G1 A0.0 F1000
G1 X177.594 Y-73.266 Z443.964 F2000
G1 A0.0 F1000
G1 X177.594 Y-73.266 Z463.964 F2000
G1 A48.929 F1000
G1 X157.594 Y-53.266 Z483.964 F2000
G1 A64.72 F1000
G1 X117.594 Y-33.266 Z503.964 F2000
G1 A72.26 F1000
G1 X57.594 Y-13.266 Z523.964 F2000
M992
G1 X292.345 Y-67.336 F5000
G3 X291.599 Y-70.499 I-292.345 J67.336 F5000
G1 Z263.964 F5000
M991
G1 A0.0 F1000
G1 X137.594 Y-33.266 Z263.964 F2000
G1 A0.0 F1000
G1 X157.594 Y-33.266 Z283.964 F2000
G1 A0.0 F1000
G1 X157.594 Y-33.266 Z303.964 F2000
G1 A0.0 F1000
G1 X177.594 Y-33.266 Z323.964 F2000
G1 A0.0 F1000
G1 X177.594 Y-33.266 Z343.964 F2000
G1 A0.0 F1000
G1 X197.594 Y-53.266 Z363.964 F2000
G1 A0.0 F1000
G1 X197.594 Y-53.266 Z383.964 F2000
G1 A0.0 F1000
G1 X197.594 Y-53.266 Z403.964 F2000
G1 A0.0 F1000
G1 X197.594 Y-53.266 Z423.964 F2000
G1 A0.0 F1000
G1 X197.594 Y-53.266 Z443.964 F2000
G1 A45.05 F1000
G1 X177.594 Y-33.266 Z463.964 F2000
G1 A44.029 F1000
G1 X157.594 Y-33.266 Z483.964 F2000
G1 A43.778 F1000
G1 X137.594 Y-33.266 Z503.964 F2000
M992
G1 X291.599 Y-70.499 F5000
G3 X298.943 Y-25.164 I-291.599 J70.499 F5000
G1 Z283.964 F5000
M991
G1 A0.0 F1000
G1 X157.594 Y-13.266 Z283.964 F2000
G1 A0.0 F1000
G1 X177.594 Y-13.266 Z303.964 F2000
G1 A0.0 F1000
G1 X177.594 Y-13.266 Z323.964 F2000
G1 A0.0 F1000
G1 X197.594 Y-13.266 Z343.964 F2000
G1 A0.0 F1000
G1 X197.594 Y-13.266 Z363.964 F2000
G1 A0.0 F1000
G1 X197.594 Y-13.266 Z383.964 F2000
G1 A0.0 F1000
G1 X197.594 Y-13.266 Z403.964 F2000
G1 A0.0 F1000
G1 X197.594 Y-13.266 Z423.964 F2000
G1 A0.0 F1000
G1 X197.594 Y-13.266 Z443.964 F2000
G1 A44.871 F1000
G1 X177.594 Y-13.266 Z463.964 F2000
G1 A0.0 F1000
G1 X177.594 Y-13.266 Z483.964 F2000
G1 A63.118 F1000
G1 X137.594 Y-13.266 Z503.964 F2000
M992
G1 X298.615 Y-28.79 F5000
G3 X34.213 Y-298.043 I-298.615 J28.79 F5000
G1 Z303.964 F5000
M991
G1 A0.0 F1000
G1 X17.594 Y-153.266 Z303.964 F2000
G1 A0.0 F1000
G1 X17.594 Y-173.266 Z323.964 F2000
G1 A0.0 F1000
G1 X17.594 Y-173.266 Z343.964 F2000
G1 A0.0 F1000
G1 X17.594 Y-193.266 Z363.964 F2000
G1 A0.0 F1000
G1 X17.594 Y-193.266 Z383.964 F2000
G1 A44.765 F1000
G1 X17.594 Y-173.266 Z403.964 F2000
G1 A0.0 F1000
G1 X17.594 Y-173.266 Z423.964 F2000
G1 A44.708 F1000
G1 X17.594 Y-153.266 Z443.964 F2000
G1 A0.0 F1000
G1 X17.594 Y-153.266 Z463.964 F2000
G1 A44.627 F1000
G1 X17.594 Y-133.266 Z483.964 F2000
G1 A0.0 F1000
G1 X17.594 Y-133.266 Z503.964 F2000
G1 A0.0 F1000
G1 X17.594 Y-133.266 Z523.964 F2000
M992
G1 X39.265 Y-297.419 F5000
G3 X85.677 Y-287.505 I-39.265 J297.419 F5000
G1 Z303.964 F5000
M991
G1 A0.0 F1000
G1 X57.594 Y-193.266 Z303.964 F2000
G1 A0.0 F1000
G1 X57.594 Y-193.266 Z323.964 F2000
G1 A0.0 F1000
G1 X57.594 Y-193.266 Z343.964 F2000
G1 A0.0 F1000
G1 X57.594 Y-193.266 Z363.964 F2000
G1 A0.0 F1000
G1 X57.594 Y-193.266 Z383.964 F2000
G1 A0.0 F1000
G1 X57.594 Y-193.266 Z403.964 F2000
G1 A0.0 F1000
G1 X57.594 Y-193.266 Z423.964 F2000
G1 A0.0 F1000
G1 X57.594 Y-193.266 Z443.964 F2000
G1 A64.038 F1000
G1 X37.594 Y-153.266 Z463.964 F2000
G1 A43.373 F1000
G1 X37.594 Y-133.266 Z483.964 F2000
G1 A45.432 F1000
G1 X17.594 Y-113.266 Z503.964 F2000
G1 A44.325 F1000
G1 X17.594 Y-93.266 Z523.964 F2000
M992
G1 X55.611 Y-294.801 F5000
G3 X119.013 Y-275.383 I-55.611 J294.801 F5000
G1 Z303.964 F5000
M991
G1 A0.0 F1000
G1 X57.594 Y-133.266 Z303.964 F2000
G1 A0.0 F1000
G1 X57.594 Y-133.266 Z323.964 F2000
G1 A0.0 F1000
G1 X97.594 Y-193.266 Z343.964 F2000
G1 A0.0 F1000
G1 X97.594 Y-193.266 Z363.964 F2000
G1 A0.0 F1000
G1 X97.594 Y-193.266 Z383.964 F2000
G1 A0.0 F1000
G1 X97.594 Y-193.266 Z403.964 F2000
G1 A0.0 F1000
G1 X97.594 Y-193.266 Z423.964 F2000
G1 A0.0 F1000
G1 X97.594 Y-193.266 Z443.964 F2000
G1 A73.068 F1000
G1 X57.594 Y-133.266 Z463.964 F2000
G1 A40.473 F1000
G1 X57.594 Y-113.266 Z483.964 F2000
G1 A50.925 F1000
G1 X37.594 Y-93.266 Z503.964 F2000
G1 A40.983 F1000
G1 X37.594 Y-73.266 Z523.964 F2000
M992
G1 X136.957 Y-266.913 F5000
G3 X161.134 Y-253.053 I-136.957 J266.913 F5000
G1 Z283.964 F5000
M991
G1 A0.0 F1000
G1 X97.594 Y-153.266 Z283.964 F2000
G1 A0.0 F1000
G1 X97.594 Y-153.266 Z303.964 F2000
G1 A0.0 F1000
G1 X117.594 Y-173.266 Z323.964 F2000
G1 A0.0 F1000
G1 X117.594 Y-173.266 Z343.964 F2000
G1 A0.0 F1000
G1 X117.594 Y-173.266 Z363.964 F2000
G1 A0.0 F1000
G1 X117.594 Y-173.266 Z383.964 F2000
G1 A0.0 F1000
G1 X117.594 Y-173.266 Z403.964 F2000
G1 A0.0 F1000
G1 X117.594 Y-173.266 Z423.964 F2000
G1 A0.0 F1000
G1 X117.594 Y-173.266 Z443.964 F2000
G1 A0.0 F1000
G1 X117.594 Y-173.266 Z463.964 F2000
G1 A53.316 F1000
G1 X97.594 Y-153.266 Z483.964 F2000
G1 A65.23 F1000
G1 X77.594 Y-113.266 Z503.964 F2000
G1 A78.43 F1000
G1 X17.594 Y-33.266 Z523.964 F2000
M992
G1 X140.257 Y-265.194 F5000
G3 X216.071 Y-208.119 I-140.257 J265.194 F5000
G1 Z243.964 F5000
M991
G1 A0.0 F1000
G1 X117.594 Y-113.266 Z243.964 F2000
G1 A0.0 F1000
G1 X117.594 Y-113.266 Z263.964 F2000
G1 A0.0 F1000
G1 X137.594 Y-133.266 Z283.964 F2000
G1 A0.0 F1000
G1 X137.594 Y-133.266 Z303.964 F2000
G1 A0.0 F1000
G1 X137.594 Y-133.266 Z323.964 F2000
G1 A0.0 F1000
G1 X157.594 Y-153.266 Z343.964 F2000
G1 A0.0 F1000
G1 X157.594 Y-153.266 Z363.964 F2000
G1 A0.0 F1000
G1 X157.594 Y-153.266 Z383.964 F2000
G1 A0.0 F1000
G1 X157.594 Y-153.266 Z403.964 F2000
G1 A0.0 F1000
G1 X157.594 Y-153.266 Z423.964 F2000
G1 A0.0 F1000
G1 X157.594 Y-153.266 Z443.964 F2000
G1 A0.0 F1000
G1 X157.594 Y-153.266 Z463.964 F2000
G1 A54.728 F1000
G1 X137.594 Y-133.266 Z483.964 F2000
G1 A54.725 F1000
G1 X117.594 Y-113.266 Z503.964 F2000
G1 A70.5 F1000
G1 X77.594 Y-73.266 Z523.964 F2000
M992
G1 X218.128 Y-205.961 F5000
G3 X248.328 Y-168.325 I-218.128 J205.961 F5000
G1 Z263.964 F5000
M991
G1 A0.0 F1000
G1 X137.594 Y-93.266 Z263.964 F2000
G1 A0.0 F1000
G1 X137.594 Y-93.266 Z283.964 F2000
G1 A0.0 F1000
G1 X137.594 Y-93.266 Z303.964 F2000
G1 A0.0 F1000
G1 X137.594 Y-93.266 Z323.964 F2000
G1 A0.0 F1000
G1 X137.594 Y-93.266 Z343.964 F2000
G1 A0.0 F1000
G1 X137.594 Y-93.266 Z363.964 F2000
G1 A0.0 F1000
G1 X157.594 Y-93.266 Z383.964 F2000
G1 A0.0 F1000
G1 X157.594 Y-93.266 Z403.964 F2000
G1 A0.0 F1000
G1 X157.594 Y-93.266 Z423.964 F2000
G1 A0.0 F1000
G1 X157.594 Y-93.266 Z443.964 F2000
G1 A37.483 F1000
G1 X137.594 Y-93.266 Z463.964 F2000
G1 A0.0 F1000
G1 X137.594 Y-93.266 Z483.964 F2000
G1 A0.0 F1000
G1 X137.594 Y-93.266 Z503.964 F2000
M992
G1 X248.328 Y-168.325 F5000
G3 X272.039 Y-126.471 I-248.328 J168.325 F5000
G1 Z263.964 F5000
M991
G1 A0.0 F1000
G1 X157.594 Y-73.266 Z263.964 F2000
G1 A0.0 F1000
G1 X157.594 Y-73.266 Z283.964 F2000
G1 A0.0 F1000
G1 X157.594 Y-73.266 Z303.964 F2000
G1 A0.0 F1000
G1 X157.594 Y-73.266 Z323.964 F2000
G1 A0.0 F1000
G1 X197.594 Y-93.266 Z343.964 F2000
G1 A0.0 F1000
G1 X197.594 Y-93.266 Z363.964 F2000
G1 A0.0 F1000
G1 X197.594 Y-93.266 Z383.964 F2000
G1 A0.0 F1000
G1 X197.594 Y-93.266 Z403.964 F2000
G1 A0.0 F1000
G1 X197.594 Y-93.266 Z423.964 F2000
G1 A0.0 F1000
G1 X197.594 Y-93.266 Z443.964 F2000
G1 A65.872 F1000
G1 X157.594 Y-73.266 Z463.964 F2000
G1 A0.0 F1000
G1 X157.594 Y-73.266 Z483.964 F2000
G1 A65.853 F1000
G1 X117.594 Y-53.266 Z503.964 F2000
M992
G1 X273.273 Y-123.783 F5000
G3 X291.599 Y-70.499 I-273.273 J123.783 F5000
G1 Z283.964 F5000
M991
G1 A0.0 F1000
G1 X137.594 Y-33.266 Z283.964 F2000
G1 A0.0 F1000
G1 X137.594 Y-33.266 Z303.964 F2000
G1 A0.0 F1000
G1 X157.594 Y-33.266 Z323.964 F2000
G1 A0.0 F1000
G1 X157.594 Y-33.266 Z343.964 F2000
G1 A0.0 F1000
G1 X177.594 Y-33.266 Z363.964 F2000
G1 A0.0 F1000
G1 X177.594 Y-33.266 Z383.964 F2000
G1 A0.0 F1000
G1 X177.594 Y-33.266 Z403.964 F2000
G1 A0.0 F1000
G1 X177.594 Y-33.266 Z423.964 F2000
G1 A0.0 F1000
G1 X177.594 Y-33.266 Z443.964 F2000
G1 A44.029 F1000
G1 X157.594 Y-33.266 Z463.964 F2000
G1 A43.778 F1000
G1 X137.594 Y-33.266 Z483.964 F2000
G1 A44.175 F1000
G1 X117.594 Y-13.266 Z503.964 F2000
M992
G1 X298.109 Y-33.629 F5000
G3 X298.943 Y-25.164 I-298.109 J33.629 F5000
G1 Z303.964 F5000
M991
G1 A0.0 F1000
G1 X157.594 Y-13.266 Z303.964 F2000
G1 A0.0 F1000
G1 X157.594 Y-13.266 Z323.964 F2000
G1 A0.0 F1000
G1 X177.594 Y-13.266 Z343.964 F2000
G1 A0.0 F1000
G1 X177.594 Y-13.266 Z363.964 F2000
G1 A0.0 F1000
G1 X177.594 Y-13.266 Z383.964 F2000
G1 A0.0 F1000
G1 X177.594 Y-13.266 Z403.964 F2000
G1 A0.0 F1000
G1 X177.594 Y-13.266 Z423.964 F2000
G1 A0.0 F1000
G1 X177.594 Y-13.266 Z443.964 F2000
G1 A44.841 F1000
G1 X157.594 Y-13.266 Z463.964 F2000
G1 A0.0 F1000
G1 X157.594 Y-13.266 Z483.964 F2000
M992
G1 X298.943 Y-25.164 F5000
G3 X34.213 Y-298.043 I-298.943 J25.164 F5000
G1 Z323.964 F5000
M991
G1 A0.0 F1000
G1 X17.594 Y-153.266 Z323.964 F2000
G1 A0.0 F1000
G1 X17.594 Y-153.266 Z343.964 F2000
G1 A0.0 F1000
G1 X37.594 Y-233.266 Z363.964 F2000
G1 A0.0 F1000
G1 X37.594 Y-233.266 Z383.964 F2000
G1 A75.535 F1000
G1 X17.594 Y-153.266 Z403.964 F2000
G1 A0.0 F1000
G1 X17.594 Y-153.266 Z423.964 F2000
G1 A33.441 F1000
G1 X17.594 Y-113.266 Z483.964 F2000
M992
G1 X46.047 Y-296.445 F5000
G3 X94.629 Y-284.685 I-46.047 J296.445 F5000
G1 Z283.964 F5000
M991
G1 A0.0 F1000
G1 X57.594 Y-173.266 Z283.964 F2000
G1 A0.0 F1000
G1 X57.594 Y-173.266 Z303.964 F2000
G1 A0.0 F1000
G1 X57.594 Y-173.266 Z323.964 F2000
G1 A0.0 F1000
G1 X57.594 Y-173.266 Z343.964 F2000
G1 A0.0 F1000
G1 X57.594 Y-173.266 Z363.964 F2000
G1 A0.0 F1000
G1 X57.594 Y-173.266 Z383.964 F2000
G1 A0.0 F1000
G1 X57.594 Y-173.266 Z403.964 F2000
G1 A0.0 F1000
G1 X57.594 Y-173.266 Z423.964 F2000
G1 A0.0 F1000
G1 X57.594 Y-173.266 Z443.964 F2000
G1 A0.0 F1000
G1 X57.594 Y-173.266 Z463.964 F2000
G1 A0.0 F1000
G1 X57.594 Y-173.266 Z483.964 F2000
G1 A72.452 F1000
G1 X37.594 Y-113.266 Z503.964 F2000
G1 A64.626 F1000
G1 X17.594 Y-73.266 Z523.964 F2000
M992
G1 X70.049 Y-291.707 F5000
G3 X150.951 Y-259.256 I-70.049 J291.707 F5000
G1 Z303.964 F5000
M991
G1 A0.0 F1000
G1 X77.594 Y-133.266 Z303.964 F2000
G1 A0.0 F1000
G1 X77.594 Y-133.266 Z323.964 F2000
G1 A0.0 F1000
G1 X77.594 Y-133.266 Z343.964 F2000
G1 A0.0 F1000
G1 X77.594 Y-153.266 Z363.964 F2000
G1 A0.0 F1000
G1 X77.594 Y-153.266 Z383.964 F2000
G1 A0.0 F1000
G1 X77.594 Y-153.266 Z403.964 F2000
G1 A0.0 F1000
G1 X77.594 Y-153.266 Z423.964 F2000
G1 A39.114 F1000
G1 X77.594 Y-133.266 Z443.964 F2000
G1 A0.0 F1000
G1 X77.594 Y-133.266 Z463.964 F2000
G1 A60.793 F1000
G1 X37.594 Y-73.266 Z503.964 F2000
G1 A51.009 F1000
G1 X17.594 Y-53.266 Z523.964 F2000
M992
G1 X94.09 Y-284.863 F5000
G3 X195.825 Y-227.272 I-94.09 J284.863 F5000
G1 Z303.964 F5000
M991
G1 A0.0 F1000
G1 X97.594 Y-113.266 Z303.964 F2000
G1 A0.0 F1000
G1 X97.594 Y-113.266 Z323.964 F2000
G1 A0.0 F1000
G1 X97.594 Y-133.266 Z343.964 F2000
G1 A0.0 F1000
G1 X97.594 Y-133.266 Z363.964 F2000
G1 A0.0 F1000
G1 X97.594 Y-133.266 Z383.964 F2000
G1 A0.0 F1000
G1 X97.594 Y-133.266 Z403.964 F2000
G1 A0.0 F1000
G1 X97.594 Y-133.266 Z423.964 F2000
G1 A0.0 F1000
G1 X97.594 Y-133.266 Z443.964 F2000
G1 A0.0 F1000
G1 X97.594 Y-133.266 Z463.964 F2000
G1 A60.883 F1000
G1 X57.594 Y-73.266 Z503.964 F2000
M992
G1 X185.402 Y-235.852 F5000
G3 X243.608 Y-175.086 I-185.402 J235.852 F5000
G1 Z303.964 F5000
M991
G1 A0.0 F1000
G1 X157.594 Y-113.266 Z303.964 F2000
G1 A0.0 F1000
G1 X157.594 Y-113.266 Z323.964 F2000
G1 A0.0 F1000
G1 X177.594 Y-133.266 Z343.964 F2000
G1 A0.0 F1000
G1 X177.594 Y-133.266 Z363.964 F2000
G1 A0.0 F1000
G1 X177.594 Y-133.266 Z383.964 F2000
G1 A0.0 F1000
G1 X177.594 Y-133.266 Z403.964 F2000
G1 A0.0 F1000
G1 X177.594 Y-133.266 Z423.964 F2000
G1 A0.0 F1000
G1 X177.594 Y-133.266 Z443.964 F2000
G1 A0.0 F1000
G1 X177.594 Y-133.266 Z463.964 F2000
G1 A53.932 F1000
G1 X157.594 Y-113.266 Z483.964 F2000
G1 A78.631 F1000
G1 X77.594 Y-53.266 Z503.964 F2000
M992
G1 X247.332 Y-169.785 F5000
G3 X265.602 Y-139.484 I-247.332 J169.785 F5000
G1 Z323.964 F5000
M991
G1 A0.0 F1000
G1 X177.594 Y-93.266 Z323.964 F2000
G1 A0.0 F1000
G1 X177.594 Y-93.266 Z343.964 F2000
G1 A0.0 F1000
G1 X177.594 Y-93.266 Z363.964 F2000
G1 A0.0 F1000
G1 X177.594 Y-93.266 Z383.964 F2000
G1 A0.0 F1000
G1 X177.594 Y-93.266 Z403.964 F2000
G1 A0.0 F1000
G1 X177.594 Y-93.266 Z423.964 F2000
G1 A0.0 F1000
G1 X177.594 Y-93.266 Z443.964 F2000
G1 A0.0 F1000
G1 X177.594 Y-93.266 Z463.964 F2000
G1 A0.0 F1000
G1 X177.594 Y-93.266 Z483.964 F2000
G1 A75.482 F1000
G1 X97.594 Y-33.266 Z503.964 F2000
M992
G1 X283.957 Y-96.789 F5000
G3 X287.353 Y-86.186 I-283.957 J96.789 F5000
G1 Z283.964 F5000
M991
G1 A0.0 F1000
G1 X177.594 Y-53.266 Z283.964 F2000
G1 A0.0 F1000
G1 X177.594 Y-53.266 Z303.964 F2000
G1 A0.0 F1000
G1 X177.594 Y-53.266 Z323.964 F2000
G1 A0.0 F1000
G1 X177.594 Y-53.266 Z343.964 F2000
G1 A0.0 F1000
G1 X177.594 Y-53.266 Z363.964 F2000
G1 A0.0 F1000
G1 X177.594 Y-53.266 Z383.964 F2000
G1 A0.0 F1000
G1 X177.594 Y-53.266 Z403.964 F2000
G1 A0.0 F1000
G1 X177.594 Y-53.266 Z423.964 F2000
G1 A0.0 F1000
G1 X177.594 Y-53.266 Z443.964 F2000
G1 A0.0 F1000
G1 X177.594 Y-53.266 Z463.964 F2000
G1 A0.0 F1000
G1 X177.594 Y-53.266 Z483.964 F2000
G1 A74.041 F1000
G1 X97.594 Y-13.266 Z503.964 F2000
M992
G1 X297.266 Y-40.407 F5000
G3 X298.943 Y-25.164 I-297.266 J40.407 F5000
G1 Z343.964 F5000
M991
G1 A0.0 F1000
G1 X157.594 Y-13.266 Z343.964 F2000
G1 A0.0 F1000
G1 X157.594 Y-13.266 Z363.964 F2000
G1 A0.0 F1000
G1 X157.594 Y-13.266 Z383.964 F2000
G1 A0.0 F1000
G1 X157.594 Y-13.266 Z403.964 F2000
G1 A0.0 F1000
G1 X157.594 Y-13.266 Z423.964 F2000
G1 A0.0 F1000
G1 X157.594 Y-13.266 Z443.964 F2000
G1 A26.464 F1000
G1 X137.594 Y-13.266 Z483.964 F2000
M992
G1 X298.615 Y-28.79 F5000
G3 X52.08 Y-295.445 I-298.615 J28.79 F5000
G1 Z323.964 F5000
M991
G1 A0.0 F1000
G1 X37.594 Y-213.266 Z323.964 F2000
G1 A0.0 F1000
G1 X37.594 Y-213.266 Z343.964 F2000
G1 A0.0 F1000
G1 X37.594 Y-213.266 Z363.964 F2000
G1 A0.0 F1000
G1 X37.594 Y-213.266 Z383.964 F2000
G1 A0.0 F1000
G1 X37.594 Y-213.266 Z403.964 F2000
G1 A0.0 F1000
G1 X37.594 Y-213.266 Z423.964 F2000
M992
G1 X52.08 Y-295.445 F5000
G3 X105.528 Y-280.827 I-52.08 J295.445 F5000
G1 Z323.964 F5000
M991
G1 A0.0 F1000
G1 X57.594 Y-153.266 Z323.964 F2000
G1 A0.0 F1000
G1 X57.594 Y-153.266 Z343.964 F2000
G1 A0.0 F1000
G1 X57.594 Y-153.266 Z363.964 F2000
G1 A0.0 F1000
G1 X57.594 Y-153.266 Z383.964 F2000
G1 A0.0 F1000
G1 X57.594 Y-153.266 Z403.964 F2000
G1 A0.0 F1000
G1 X57.594 Y-153.266 Z423.964 F2000
G1 A0.0 F1000
G1 X57.594 Y-153.266 Z443.964 F2000
G1 A47.843 F1000
G1 X37.594 Y-113.266 Z483.964 F2000
G1 A64.626 F1000
G1 X17.594 Y-73.266 Z503.964 F2000
M992
G1 X70.049 Y-291.707 F5000
G3 X161.134 Y-253.053 I-70.049 J291.707 F5000
G1 Z323.964 F5000
M991
G1 A0.0 F1000
G1 X97.594 Y-153.266 Z323.964 F2000
G1 A0.0 F1000
G1 X97.594 Y-153.266 Z343.964 F2000
G1 A0.0 F1000
G1 X97.594 Y-153.266 Z363.964 F2000
G1 A0.0 F1000
G1 X97.594 Y-153.266 Z383.964 F2000
G1 A0.0 F1000
G1 X97.594 Y-153.266 Z403.964 F2000
G1 A0.0 F1000
G1 X97.594 Y-153.266 Z423.964 F2000
G1 A0.0 F1000
G1 X97.594 Y-153.266 Z443.964 F2000
G1 A0.0 F1000
G1 X97.594 Y-153.266 Z463.964 F2000
G1 A60.96 F1000
G1 X57.594 Y-93.266 Z503.964 F2000
M992
G1 X157.625 Y-255.254 F5000
G3 X198.492 Y-224.946 I-157.625 J255.254 F5000
G1 Z263.964 F5000
M991
G1 A0.0 F1000
G1 X117.594 Y-133.266 Z263.964 F2000
G1 A0.0 F1000
G1 X117.594 Y-133.266 Z283.964 F2000
G1 A0.0 F1000
G1 X137.594 Y-153.266 Z303.964 F2000
G1 A0.0 F1000
G1 X137.594 Y-153.266 Z323.964 F2000
G1 A0.0 F1000
G1 X137.594 Y-153.266 Z343.964 F2000
G1 A0.0 F1000
G1 X157.594 Y-173.266 Z363.964 F2000
G1 A0.0 F1000
G1 X157.594 Y-173.266 Z383.964 F2000
G1 A0.0 F1000
G1 X157.594 Y-173.266 Z403.964 F2000
G1 A0.0 F1000
G1 X157.594 Y-173.266 Z423.964 F2000
G1 A0.0 F1000
G1 X157.594 Y-173.266 Z443.964 F2000
G1 A54.645 F1000
G1 X137.594 Y-153.266 Z463.964 F2000
G1 A54.618 F1000
G1 X117.594 Y-133.266 Z483.964 F2000
G1 A79.363 F1000
G1 X37.594 Y-53.266 Z503.964 F2000
M992
G1 X172.988 Y-245.103 F5000
G3 X264.8 Y-141.0 I-172.988 J245.103 F5000
G1 Z323.964 F5000
M991
G1 A0.0 F1000
G1 X137.594 Y-73.266 Z323.964 F2000
G1 A0.0 F1000
G1 X137.594 Y-73.266 Z343.964 F2000
G1 A0.0 F1000
G1 X137.594 Y-73.266 Z363.964 F2000
G1 A0.0 F1000
G1 X137.594 Y-73.266 Z383.964 F2000
G1 A0.0 F1000
G1 X137.594 Y-73.266 Z403.964 F2000
G1 A0.0 F1000
G1 X137.594 Y-73.266 Z423.964 F2000
G1 A0.0 F1000
G1 X137.594 Y-73.266 Z443.964 F2000
G1 A0.0 F1000
G1 X137.594 Y-73.266 Z463.964 F2000
G1 A38.619 F1000
G1 X117.594 Y-73.266 Z483.964 F2000
G1 A52.686 F1000
G1 X97.594 Y-53.266 Z503.964 F2000
M992
G1 X263.332 Y-143.724 F5000
G3 X279.768 Y-108.305 I-263.332 J143.724 F5000
G1 Z303.964 F5000
M991
G1 A0.0 F1000
G1 X137.594 Y-53.266 Z303.964 F2000
G1 A0.0 F1000
G1 X137.594 Y-53.266 Z323.964 F2000
G1 A0.0 F1000
G1 X157.594 Y-53.266 Z343.964 F2000
G1 A0.0 F1000
G1 X157.594 Y-53.266 Z363.964 F2000
G1 A0.0 F1000
G1 X157.594 Y-53.266 Z383.964 F2000
G1 A0.0 F1000
G1 X157.594 Y-53.266 Z403.964 F2000
G1 A0.0 F1000
G1 X157.594 Y-53.266 Z423.964 F2000
G1 A0.0 F1000
G1 X157.594 Y-53.266 Z443.964 F2000
G1 A0.0 F1000
G1 X157.594 Y-53.266 Z463.964 F2000
G1 A42.058 F1000
G1 X137.594 Y-53.266 Z483.964 F2000
G1 A70.166 F1000
G1 X77.594 Y-13.266 Z503.964 F2000
M992
G1 X295.71 Y-50.555 F5000
G3 X295.837 Y-49.805 I-295.71 J50.555 F5000
G1 Z323.964 F5000
M991
G1 A0.0 F1000
G1 X197.594 Y-33.266 Z323.964 F2000
G1 A0.0 F1000
G1 X217.594 Y-33.266 Z343.964 F2000
G1 A0.0 F1000
G1 X217.594 Y-33.266 Z363.964 F2000
G1 A0.0 F1000
G1 X217.594 Y-33.266 Z383.964 F2000
G1 A0.0 F1000
G1 X217.594 Y-33.266 Z403.964 F2000
G1 A0.0 F1000
G1 X217.594 Y-33.266 Z423.964 F2000
G1 A0.0 F1000
G1 X217.594 Y-33.266 Z443.964 F2000
G1 A44.346 F1000
G1 X197.594 Y-33.266 Z463.964 F2000
G1 A0.0 F1000
G1 X197.594 Y-33.266 Z483.964 F2000
M992
G1 X295.837 Y-49.805 F5000
G3 X30.307 Y-298.465 I-295.837 J49.805 F5000
G1 Z363.964 F5000
M991
G1 A0.0 F1000
G1 X17.594 Y-173.266 Z363.964 F2000
G1 A0.0 F1000
G1 X17.594 Y-173.266 Z383.964 F2000
G1 A33.495 F1000
G1 X17.594 Y-93.266 Z503.964 F2000
M992
G1 X55.611 Y-294.801 F5000
G3 X119.013 Y-275.383 I-55.611 J294.801 F5000
G1 Z343.964 F5000
M991
G1 A0.0 F1000
G1 X57.594 Y-133.266 Z343.964 F2000
G1 A0.0 F1000
G1 X77.594 Y-173.266 Z363.964 F2000
G1 A0.0 F1000
G1 X77.594 Y-173.266 Z383.964 F2000
G1 A0.0 F1000
G1 X77.594 Y-173.266 Z403.964 F2000
G1 A65.789 F1000
G1 X57.594 Y-133.266 Z423.964 F2000
G1 A0.0 F1000
G1 X57.594 Y-133.266 Z443.964 F2000
G1 A56.013 F1000
G1 X17.594 Y-53.266 Z503.964 F2000
M992
G1 X94.09 Y-284.863 F5000
G3 X169.548 Y-247.494 I-94.09 J284.863 F5000
G1 Z483.964 F5000
M991
G1 A78.43 F1000
G1 X77.594 Y-113.266 Z483.964 F2000
G1 A78.43 F1000
G1 X17.594 Y-33.266 Z503.964 F2000
M992
G1 X140.257 Y-265.194 F5000
G3 X235.048 Y-186.421 I-140.257 J265.194 F5000
G1 Z303.964 F5000
M991
G1 A0.0 F1000
G1 X117.594 Y-93.266 Z303.964 F2000
G1 A0.0 F1000
G1 X117.594 Y-93.266 Z323.964 F2000
G1 A0.0 F1000
G1 X117.594 Y-93.266 Z343.964 F2000
G1 A0.0 F1000
G1 X117.594 Y-93.266 Z363.964 F2000
G1 A0.0 F1000
G1 X137.594 Y-113.266 Z383.964 F2000
G1 A0.0 F1000
G1 X137.594 Y-113.266 Z403.964 F2000
G1 A0.0 F1000
G1 X137.594 Y-113.266 Z423.964 F2000
G1 A0.0 F1000
G1 X137.594 Y-113.266 Z443.964 F2000
G1 A54.359 F1000
G1 X117.594 Y-93.266 Z463.964 F2000
G1 A63.971 F1000
G1 X57.594 Y-33.266 Z503.964 F2000
M992
G1 X259.78 Y-150.047 F5000
G3 X272.039 Y-126.471 I-259.78 J150.047 F5000
G1 Z343.964 F5000
M991
G1 A0.0 F1000
G1 X157.594 Y-73.266 Z343.964 F2000
G1 A0.0 F1000
G1 X157.594 Y-73.266 Z363.964 F2000
G1 A0.0 F1000
G1 X157.594 Y-73.266 Z383.964 F2000
G1 A0.0 F1000
G1 X157.594 Y-73.266 Z403.964 F2000
G1 A0.0 F1000
G1 X157.594 Y-73.266 Z423.964 F2000
G1 A0.0 F1000
G1 X157.594 Y-73.266 Z443.964 F2000
G1 A48.164 F1000
G1 X117.594 Y-53.266 Z483.964 F2000
G1 A65.811 F1000
G1 X77.594 Y-33.266 Z503.964 F2000
M992
G1 X275.729 Y-118.209 F5000
G3 X291.599 Y-70.499 I-275.729 J118.209 F5000
G1 Z323.964 F5000
M991
G1 A0.0 F1000
G1 X137.594 Y-33.266 Z323.964 F2000
G1 A0.0 F1000
G1 X137.594 Y-33.266 Z343.964 F2000
G1 A0.0 F1000
G1 X157.594 Y-33.266 Z363.964 F2000
G1 A0.0 F1000
G1 X157.594 Y-33.266 Z383.964 F2000
G1 A0.0 F1000
G1 X157.594 Y-33.266 Z403.964 F2000
G1 A0.0 F1000
G1 X157.594 Y-33.266 Z423.964 F2000
G1 A0.0 F1000
G1 X157.594 Y-33.266 Z443.964 F2000
G1 A43.778 F1000
G1 X137.594 Y-33.266 Z463.964 F2000
G1 A44.175 F1000
G1 X117.594 Y-13.266 Z483.964 F2000
M992
G1 X298.109 Y-33.629 F5000
G3 X63.611 Y-293.178 I-298.109 J33.629 F5000
G1 Z343.964 F5000
M991
G1 A0.0 F1000
G1 X37.594 Y-173.266 Z343.964 F2000
G1 A0.0 F1000
G1 X37.594 Y-173.266 Z363.964 F2000
G1 A0.0 F1000
G1 X37.594 Y-173.266 Z383.964 F2000
G1 A0.0 F1000
G1 X37.594 Y-173.266 Z403.964 F2000
G1 A0.0 F1000
G1 X37.594 Y-173.266 Z423.964 F2000
M992
G1 X63.611 Y-293.178 F5000
G3 X119.013 Y-275.383 I-63.611 J293.178 F5000
G1 Z363.964 F5000
M991
G1 A0.0 F1000
G1 X57.594 Y-133.266 Z363.964 F2000
G1 A0.0 F1000
G1 X57.594 Y-133.266 Z383.964 F2000
G1 A0.0 F1000
G1 X57.594 Y-133.266 Z403.964 F2000
M992
G1 X119.013 Y-275.383 F5000
G3 X243.608 Y-175.086 I-119.013 J275.383 F5000
G1 Z343.964 F5000
M991
G1 A0.0 F1000
G1 X157.594 Y-113.266 Z343.964 F2000
G1 A0.0 F1000
G1 X157.594 Y-113.266 Z363.964 F2000
G1 A0.0 F1000
G1 X157.594 Y-113.266 Z383.964 F2000
G1 A0.0 F1000
G1 X157.594 Y-113.266 Z403.964 F2000
G1 A0.0 F1000
G1 X157.594 Y-113.266 Z423.964 F2000
G1 A0.0 F1000
G1 X157.594 Y-113.266 Z443.964 F2000
G1 A0.0 F1000
G1 X157.594 Y-113.266 Z463.964 F2000
G1 A75.075 F1000
G1 X37.594 Y-13.266 Z503.964 F2000
M992
G1 X282.904 Y-99.828 F5000
G3 X279.768 Y-108.305 I-282.904 J99.828 F5000
G1 Z343.964 F5000
M991
G1 A0.0 F1000
G1 X137.594 Y-53.266 Z343.964 F2000
G1 A0.0 F1000
G1 X137.594 Y-53.266 Z363.964 F2000
G1 A0.0 F1000
G1 X137.594 Y-53.266 Z383.964 F2000
G1 A0.0 F1000
G1 X137.594 Y-53.266 Z403.964 F2000
G1 A0.0 F1000
G1 X137.594 Y-53.266 Z423.964 F2000
G1 A0.0 F1000
G1 X137.594 Y-53.266 Z443.964 F2000
G1 A0.0 F1000
G1 X137.594 Y-53.266 Z463.964 F2000
G1 A48.318 F1000
G1 X117.594 Y-33.266 Z483.964 F2000
G1 A72.26 F1000
G1 X57.594 Y-13.266 Z503.964 F2000
M992
G1 X292.345 Y-67.336 F5000
G3 X295.837 Y-49.805 I-292.345 J67.336 F5000
G1 Z343.964 F5000
M991
G1 A0.0 F1000
G1 X197.594 Y-33.266 Z343.964 F2000
G1 A0.0 F1000
G1 X197.594 Y-33.266 Z363.964 F2000
G1 A0.0 F1000
G1 X197.594 Y-33.266 Z383.964 F2000
G1 A0.0 F1000
G1 X197.594 Y-33.266 Z403.964 F2000
G1 A0.0 F1000
G1 X197.594 Y-33.266 Z423.964 F2000
G1 A0.0 F1000
G1 X197.594 Y-33.266 Z443.964 F2000
M992
G1 X295.837 Y-49.805 F5000
G3 X34.213 Y-298.043 I-295.837 J49.805 F5000
G1 Z363.964 F5000
M991
G1 A0.0 F1000
G1 X17.594 Y-153.266 Z363.964 F2000
G1 A0.0 F1000
G1 X17.594 Y-153.266 Z383.964 F2000
M992
G1 X34.213 Y-298.043 F5000
G3 X248.328 Y-168.325 I-34.213 J298.043 F5000
G1 Z383.964 F5000
M991
G1 A0.0 F1000
G1 X137.594 Y-93.266 Z383.964 F2000
G1 A0.0 F1000
G1 X137.594 Y-93.266 Z403.964 F2000
G1 A0.0 F1000
G1 X137.594 Y-93.266 Z423.964 F2000
G1 A0.0 F1000
G1 X137.594 Y-93.266 Z443.964 F2000
M992
G1 X248.328 Y-168.325 F5000
G3 X198.492 Y-224.946 I-248.328 J168.325 F5000
G1 Z303.964 F5000
M991
G1 A0.0 F1000
G1 X117.594 Y-133.266 Z303.964 F2000
G1 A0.0 F1000
G1 X117.594 Y-133.266 Z323.964 F2000
G1 A0.0 F1000
G1 X117.594 Y-133.266 Z343.964 F2000
G1 A0.0 F1000
G1 X137.594 Y-153.266 Z363.964 F2000
G1 A0.0 F1000
G1 X137.594 Y-153.266 Z383.964 F2000
G1 A0.0 F1000
G1 X137.594 Y-153.266 Z403.964 F2000
G1 A0.0 F1000
G1 X137.594 Y-153.266 Z423.964 F2000
G1 A0.0 F1000
G1 X137.594 Y-153.266 Z443.964 F2000
G1 A54.618 F1000
G1 X117.594 Y-133.266 Z463.964 F2000
M992
G1 X198.492 Y-224.946 F5000
G3 X291.599 Y-70.499 I-198.492 J224.946 F5000
G1 Z363.964 F5000
M991
G1 A0.0 F1000
G1 X137.594 Y-33.266 Z363.964 F2000
G1 A0.0 F1000
G1 X137.594 Y-33.266 Z383.964 F2000
G1 A0.0 F1000
G1 X137.594 Y-33.266 Z403.964 F2000
G1 A0.0 F1000
G1 X137.594 Y-33.266 Z423.964 F2000
G1 A0.0 F1000
G1 X137.594 Y-33.266 Z443.964 F2000
M992
G1 X291.599 Y-70.499 F5000
G3 X71.467 Y-291.363 I-291.599 J70.499 F5000
G1 Z303.964 F5000
M991
G1 A0.0 F1000
G1 X37.594 Y-153.266 Z303.964 F2000
G1 A0.0 F1000
G1 X37.594 Y-153.266 Z323.964 F2000
G1 A0.0 F1000
G1 X37.594 Y-153.266 Z343.964 F2000
G1 A0.0 F1000
G1 X37.594 Y-153.266 Z363.964 F2000
G1 A0.0 F1000
G1 X37.594 Y-153.266 Z383.964 F2000
G1 A0.0 F1000
G1 X37.594 Y-153.266 Z403.964 F2000
G1 A0.0 F1000
G1 X37.594 Y-153.266 Z423.964 F2000
G1 A0.0 F1000
G1 X37.594 Y-153.266 Z443.964 F2000
M992
G1 X71.467 Y-291.363 F5000
G3 X150.951 Y-259.256 I-71.467 J291.363 F5000
G1 Z363.964 F5000
M991
G1 A0.0 F1000
G1 X77.594 Y-133.266 Z363.964 F2000
G1 A0.0 F1000
G1 X77.594 Y-133.266 Z383.964 F2000
G1 A0.0 F1000
G1 X77.594 Y-133.266 Z403.964 F2000
G1 A0.0 F1000
G1 X77.594 Y-133.266 Z423.964 F2000
M992
G1 X150.951 Y-259.256 F5000
G3 X216.071 Y-208.119 I-150.951 J259.256 F5000
G1 Z283.964 F5000
M991
G1 A0.0 F1000
G1 X117.594 Y-113.266 Z283.964 F2000
G1 A0.0 F1000
G1 X117.594 Y-113.266 Z303.964 F2000
G1 A0.0 F1000
G1 X117.594 Y-113.266 Z323.964 F2000
G1 A0.0 F1000
G1 X137.594 Y-133.266 Z343.964 F2000
G1 A0.0 F1000
G1 X137.594 Y-133.266 Z363.964 F2000
G1 A0.0 F1000
G1 X137.594 Y-133.266 Z383.964 F2000
G1 A0.0 F1000
G1 X137.594 Y-133.266 Z403.964 F2000
G1 A0.0 F1000
G1 X137.594 Y-133.266 Z423.964 F2000
G1 A0.0 F1000
G1 X137.594 Y-133.266 Z443.964 F2000
G1 A0.0 F1000
G1 X137.594 Y-133.266 Z463.964 F2000
G1 A54.725 F1000
G1 X117.594 Y-113.266 Z483.964 F2000
G1 A54.721 F1000
G1 X97.594 Y-93.266 Z503.964 F2000
G1 A70.487 F1000
G1 X57.594 Y-53.266 Z523.964 F2000
M992
G1 X220.246 Y-203.695 F5000
G3 X235.048 Y-186.421 I-220.246 J203.695 F5000
G1 Z383.964 F5000
M991
G1 A0.0 F1000
G1 X117.594 Y-93.266 Z383.964 F2000
G1 A0.0 F1000
G1 X117.594 Y-93.266 Z403.964 F2000
G1 A0.0 F1000
G1 X117.594 Y-93.266 Z423.964 F2000
G1 A0.0 F1000
G1 X117.594 Y-93.266 Z443.964 F2000
M992
G1 X235.048 Y-186.421 F5000
G0 A0 X0 Y0 Z813 ; rapid end state
M84 ; disable steppers
